OBJECT_NAME,OBJECT_ID,EPOCH,MEAN_MOTION,ECCENTRICITY,INCLINATION,RA_OF_ASC_NODE,ARG_OF_PERICENTER,MEAN_ANOMALY,EPHEMERIS_TYPE,CLASSIFICATION_TYPE,NORAD_CAT_ID,ELEMENT_SET_NO,REV_AT_EPOCH,BSTAR,MEAN_MOTION_DOT,MEAN_MOTION_DDOT
STARLINK-37799,2026-119X,2026-06-18T14:00:01.000224,15.71224338,.00014132,97.2840,195.5281,106.9222,204.1137,0,U,69317,999,422,-.23371734E-1,-.2569479E-1,0
STARLINK-37802,2026-119Y,2026-06-18T14:00:01.000224,15.66170986,.00016662,97.2845,195.5138,113.1379,163.2958,0,U,69318,999,427,-.28417007E-1,-.2539936E-1,0
STARLINK-37803,2026-119Z,2026-06-18T14:00:01.000224,15.53699181,.00013501,97.2853,195.4191,80.6769,322.6142,0,U,69319,999,422,-.22920995E-1,-.1322697E-1,0
GUOWANG TEST OBJECT A,2026-120A,2026-06-07T11:06:12.288672,15.38803685,.00095994,54.9967,71.5399,294.3963,65.6063,0,U,69320,999,119,.24095813E-3,.9002E-4,0
GUOWANG TEST OBJECT B,2026-120B,2026-06-18T13:37:36.509088,15.38740098,.00102896,54.9984,21.5209,334.5951,25.4571,0,U,69321,999,290,.28311198E-3,.10628E-3,0
GUOWANG TEST OBJECT C,2026-120C,2026-06-07T21:56:00.773376,15.39284097,.00098504,54.9968,69.4792,309.3319,50.6835,0,U,69322,999,126,.41735581E-3,.16153E-3,0
GUOWANG TEST OBJECT D,2026-120D,2026-06-17T23:29:30.192288,15.39049885,.00117566,54.9980,24.1234,346.0651,14.0051,0,U,69323,999,281,.45962169E-4,.141E-4,0
QIANFAN-163,2026-121A,2026-06-18T14:58:26.651712,13.59758386,.00202479,89.0148,300.3700,184.7924,175.3042,0,U,69325,999,235,.16491835E-4,.25E-6,0
QIANFAN-164,2026-121B,2026-06-11T09:53:52.001952,13.60355109,.0019383,89.0157,301.0998,205.3125,154.7084,0,U,69326,999,137,.13228E-3,.112E-5,0
CZ-12B R/B,2026-121C,2026-06-18T08:53:24.111744,14.04085075,.01949353,89.0319,300.2998,3.3789,356.8656,0,U,69327,999,239,-.8814113E-5,-.3E-7,0
SZ-22 MODULE,2025-272C,2026-06-18T10:56:37.706208,15.60259419,.00062508,41.4807,314.3946,97.9902,262.1647,0,U,69328,999,352,.2077491E-3,.17163E-3,0
STARLINK-37733,2026-122A,2026-06-18T04:13:56.398944,15.80450219,.00014071,97.2827,198.6747,137.8378,222.2998,0,U,69329,999,231,-.23398453E-2,-.420355E-2,0
STARLINK-37772,2026-122B,2026-06-18T14:00:01.000224,15.78684278,.00018843,97.2843,199.1151,109.5598,69.9034,0,U,69330,999,352,-.17080158E-1,-.2540106E-1,0
STARLINK-37768,2026-122C,2026-06-18T14:00:01.000224,15.68084799,.00019662,97.2848,199.0962,92.0750,43.9838,0,U,69331,999,352,-.26043843E-1,-.2520074E-1,0
STARLINK-37833,2026-122D,2026-06-18T14:00:01.000224,15.74377435,.00015924,97.2847,199.1165,84.8412,99.2325,0,U,69332,999,352,-.17772906E-1,-.2230021E-1,0
STARLINK-37818,2026-122E,2026-06-18T14:00:01.000224,15.72854231,.00018292,97.2848,199.1102,84.3431,80.6658,0,U,69333,999,357,-.20941217E-1,-.2426593E-1,0
STARLINK-37868,2026-122F,2026-06-18T14:00:01.000224,15.76639190,.00017769,97.2842,199.1339,98.8825,123.5446,0,U,69334,999,357,-.18692879E-1,-.2536002E-1,0
STARLINK-37877,2026-122G,2026-06-18T14:00:01.000224,15.64352493,.00016217,97.2853,199.1023,72.7909,67.5985,0,U,69335,999,357,-.28917982E-1,-.2419959E-1,0
STARLINK-37791,2026-122H,2026-06-18T14:00:01.000224,15.72593445,.00019723,97.2844,199.1312,99.6258,116.0180,0,U,69336,999,357,-.20586365E-1,-.2368935E-1,0
STARLINK-37765,2026-122J,2026-06-18T14:30:25.919424,15.80805729,.00012982,97.2826,199.1650,44.8768,315.2605,0,U,69337,999,238,.58154276E-3,.112647E-2,0
STARLINK-37788,2026-122K,2026-06-18T14:00:01.000224,15.63925938,.00019923,97.2844,199.1025,92.0377,58.3732,0,U,69338,999,357,-.30980873E-1,-.2532473E-1,0
STARLINK-37743,2026-122L,2026-06-18T14:00:01.000224,15.72274600,.00015378,97.2847,199.1266,89.3654,119.1542,0,U,69339,999,357,-.15689116E-1,-.181032E-1,0
STARLINK-37780,2026-122M,2026-06-18T14:00:01.000224,15.76106120,.00015351,97.2843,199.1370,89.2851,140.4854,0,U,69340,999,362,-.12718435E-1,-.174225E-1,0
STARLINK-37781,2026-122N,2026-06-18T14:00:01.000224,15.64184290,.00016344,97.2849,199.0991,78.4145,55.3165,0,U,69341,999,357,-.29474808E-1,-.244632E-1,0
STARLINK-37782,2026-122P,2026-06-18T12:48:33.243840,15.80798629,.00011951,97.2841,199.1092,101.3573,258.7830,0,U,69342,999,237,.61315827E-3,.118824E-2,0
STARLINK-37776,2026-122Q,2026-06-18T14:18:24.971040,15.80276195,.00034339,97.2835,199.1769,56.9400,303.2197,0,U,69343,999,238,-.28764518E-2,-.507953E-2,0
STARLINK-37786,2026-122R,2026-06-18T14:00:01.000224,15.69836767,.0001571,97.2846,199.1533,103.2139,158.6225,0,U,69344,999,357,-.22844003E-1,-.2342986E-1,0
STARLINK-37785,2026-122S,2026-06-18T14:00:01.000224,15.76739155,.00007719,97.2838,199.1690,94.1553,205.5325,0,U,69345,999,357,-.55560337E-2,-.807674E-2,0
STARLINK-37773,2026-122T,2026-06-18T14:00:01.000224,15.74356074,.00014759,97.2840,199.1600,99.4318,183.9309,0,U,69346,999,362,-.2017102E-1,-.2483508E-1,0
STARLINK-37744,2026-122U,2026-06-18T14:00:01.000224,15.62340205,.00021327,97.2848,199.1243,89.0180,100.1525,0,U,69347,999,357,-.32107462E-1,-.2474319E-1,0
STARLINK-37775,2026-122V,2026-06-18T14:00:01.000224,15.75255547,.00015447,97.2839,199.1614,112.9737,171.8762,0,U,69348,999,357,-.1985698E-1,-.2533812E-1,0
STARLINK-37777,2026-122W,2026-06-18T14:00:01.000224,15.75290813,.00016787,97.2841,199.1613,105.8198,179.6699,0,U,69349,999,357,-.19178891E-1,-.2463869E-1,0
STARLINK-37779,2026-122X,2026-06-18T08:10:02.743392,15.80514301,.00052766,97.2836,198.9135,203.6569,156.4457,0,U,69350,999,234,-.1173761E-2,-.216757E-2,0
STARLINK-37549,2026-122Y,2026-06-18T14:00:01.000224,15.67951177,.00017389,97.2841,199.1413,97.4222,137.9143,0,U,69351,999,357,-.1894737E-1,-.1822839E-1,0
STARLINK-37778,2026-122Z,2026-06-18T14:00:01.000224,15.70270282,.00016842,97.2842,199.1562,105.9599,167.0870,0,U,69352,999,357,-.24060863E-1,-.2545119E-1,0
STARLINK-37651,2026-123A,2026-06-18T13:30:38.437632,15.80897218,.00014336,53.1577,234.9126,43.6668,316.4468,0,U,69353,999,225,.72597815E-3,.145181E-2,0
STARLINK-37652,2026-123B,2026-06-18T12:01:14.636640,15.80906794,.00008138,53.1577,235.2383,32.9093,327.1980,0,U,69354,999,224,.11198938E-2,.226582E-2,0
STARLINK-37593,2026-123C,2026-06-18T15:02:03.689376,15.80907346,.000115,53.1575,234.5973,105.2220,254.8930,0,U,69355,999,226,.66238574E-3,.132264E-2,0
STARLINK-37597,2026-123D,2026-06-18T13:28:40.952640,15.80906413,.00015388,53.1576,234.9035,50.4394,309.6764,0,U,69356,999,225,.80342768E-3,.161113E-2,0
STARLINK-37598,2026-123E,2026-06-18T13:25:39.710496,15.80917911,.00012196,53.1578,234.8887,54.2863,305.8273,0,U,69357,999,225,.98435613E-3,.198522E-2,0
STARLINK-37602,2026-123F,2026-06-18T14:00:01.000224,15.75225788,.00012859,53.1587,234.8966,79.4091,355.5225,0,U,69358,999,342,.10389925E-3,.15306E-3,0
STARLINK-37600,2026-123G,2026-06-18T14:00:01.000224,15.75225901,.00011012,53.1584,234.8475,95.5031,3.3534,0,U,69359,999,342,.92281514E-4,.13521E-3,0
STARLINK-37599,2026-123H,2026-06-18T11:39:41.226912,15.80923915,.00009501,53.1569,235.1368,36.3102,323.7985,0,U,69360,999,224,.98838804E-3,.199415E-2,0
STARLINK-37039,2026-123J,2026-06-18T14:48:51.090336,15.80915231,.00012759,53.1575,234.5339,97.0324,263.0844,0,U,69361,999,226,.78973715E-3,.158368E-2,0
STARLINK-37040,2026-123K,2026-06-18T14:00:01.000224,15.80868962,.00010566,53.1581,234.4793,75.1644,201.7068,0,U,69362,999,337,-.26870362E-4,-.5997E-4,0
STARLINK-37582,2026-123L,2026-06-18T14:00:01.000224,15.75166963,.00012856,53.1584,234.7400,89.4815,60.9515,0,U,69363,999,337,.2417861E-3,.36467E-3,0
STARLINK-37309,2026-123M,2026-06-18T14:00:01.000224,15.80761628,.00012904,53.1584,234.3592,84.9928,250.0256,0,U,69364,999,351,.47665161E-3,.9392E-3,0
STARLINK-37436,2026-123N,2026-06-18T14:00:01.000224,15.80797489,.00008908,53.1584,234.3228,106.4225,246.1299,0,U,69365,999,351,.34787077E-3,.68264E-3,0
STARLINK-37581,2026-123P,2026-06-18T14:00:01.000224,15.80935510,.00011102,53.1579,234.3669,68.5953,262.5103,0,U,69366,999,337,-.37365607E-3,-.7403E-3,0
STARLINK-37683,2026-123Q,2026-06-18T14:00:01.000224,15.75203364,.0001098,53.1595,234.3635,29.7320,302.6864,0,U,69367,999,338,.5307184E-3,.81371E-3,0
STARLINK-37687,2026-123R,2026-06-18T14:00:01.000224,15.80851594,.00011829,53.1582,234.2700,72.1777,305.7321,0,U,69368,999,338,.13735389E-3,.26467E-3,0
STARLINK-37631,2026-123S,2026-06-18T14:00:01.000224,15.80876892,.00010911,53.1583,234.2793,100.9659,272.4416,0,U,69369,999,343,-.15305863E-3,-.30805E-3,0
STARLINK-37673,2026-123T,2026-06-18T14:00:01.000224,15.80873432,.0001145,53.1580,234.2741,80.2776,295.5952,0,U,69370,999,343,-.10455367E-3,-.21284E-3,0
STARLINK-37645,2026-123U,2026-06-18T14:00:01.000224,15.80860632,.00011887,53.1578,234.2960,66.5969,298.5594,0,U,69371,999,343,.3120463E-4,.546E-4,0
STARLINK-37688,2026-123V,2026-06-18T14:00:01.000224,15.80879580,.00011911,53.1575,234.2648,77.9520,301.8803,0,U,69372,999,343,-.16642496E-3,-.33429E-3,0
STARLINK-37685,2026-123W,2026-06-18T14:00:01.000224,15.80820645,.00011127,53.1576,234.2587,72.1159,310.6131,0,U,69373,999,343,.51961311E-3,.102835E-2,0
STARLINK-37632,2026-123X,2026-06-18T14:00:01.000224,15.80854384,.00010656,53.1575,234.2500,75.1094,311.8321,0,U,69374,999,338,.29242884E-4,.5071E-4,0
STARLINK-37454,2026-123Y,2026-06-18T14:00:01.000224,15.80855020,.00012745,53.1574,234.2367,75.8027,317.3821,0,U,69375,999,352,.10640302E-3,.20334E-3,0
STARLINK-37485,2026-123Z,2026-06-18T14:00:01.000224,15.80816061,.00011265,53.1575,234.2278,68.5871,328.8111,0,U,69376,999,352,.54839702E-3,.108621E-2,0
STARLINK-37439,2026-123AA,2026-06-18T14:00:01.000224,15.80877300,.00010985,53.1575,234.1434,78.3273,359.5851,0,U,69377,999,338,-.4395559E-4,-.9366E-4,0
STARLINK-37376,2026-123AB,2026-06-18T14:00:01.000224,15.75198776,.00012728,53.1594,234.2014,72.1939,337.5736,0,U,69378,999,352,.51132647E-4,.7192E-4,0
STARLINK-37383,2026-123AC,2026-06-18T14:00:01.000224,15.80876804,.00011408,53.1575,234.1006,77.7540,20.2645,0,U,69379,999,352,-.3146907E-5,-.132E-4,0
STARLINK-37411,2026-123AD,2026-06-18T14:00:01.000224,15.80871967,.00013107,53.1573,234.1587,86.4131,343.7709,0,U,69380,999,352,-.4470844E-4,-.9513E-4,0
